NORAD_CAT_ID,OBJECT_NAME,OBJECT_TYPE,EPOCH,MEAN_MOTION,ECCENTRICITY,INCLINATION,RA_OF_ASC_NODE,ARG_OF_PERICENTER,MEAN_ANOMALY,BSTAR,MEAN_MOTION_DOT,MEAN_MOTION_DDOT,TLE_LINE0,TLE_LINE1,TLE_LINE2,SEMIMAJOR_AXIS,PERIOD,APOGEE,PERIGEE,DECAYED
52574.0,STARLINK-3901,PAYLOAD,2024-02-22 18:24:14,15.08847298,0.0001287,53.2167,227.6984,85.15,274.964,-9.7872e-05,-1.846e-05,0.0,0 STARLINK-3901,1 52574U 22051AQ  24053.76683323 -.00001846  00000-0 -97872-4 0  9993,2 52574  53.2167 227.6984 0001287  85.1500 274.9640 15.08847298 98971,6917.858,95.437,540.613,538.833,0.0
52574.0,STARLINK-3901,PAYLOAD,2024-02-23 11:53:29,15.08828998,0.0001376,53.2166,224.4273,81.3862,278.7286,9.2551e-05,1.185e-05,0.0,0 STARLINK-3901,1 52574U 22051AQ  24054.49547999  .00001185  00000-0  92551-4 0  9995,2 52574  53.2166 224.4273 0001376  81.3862 278.7286 15.08828998 99081,6917.914,95.438,540.731,538.827,0.0
52574.0,STARLINK-3901,PAYLOAD,2024-02-23 18:15:01,15.08835317,0.0001368,53.2166,223.2382,81.0957,279.019,0.00013869,1.92e-05,0.0,0 STARLINK-3901,1 52574U 22051AQ  24054.76043693  .00001920  00000-0  13869-3 0  9998,2 52574  53.2166 223.2382 0001368  81.0957 279.0190 15.08835317 99195,6917.895,95.438,540.706,538.813,0.0
52574.0,STARLINK-3901,PAYLOAD,2024-02-24 11:44:16,15.08834356,0.0001397,53.2169,219.9696,87.5507,272.5645,4.0246e-05,3.53e-06,0.0,0 STARLINK-3901,1 52574U 22051AQ  24055.48908431  .00000353  00000-0  40246-4 0  9997,2 52574  53.2169 219.9696 0001397  87.5507 272.5645 15.08834356 99232,6917.898,95.438,540.729,538.796,0.0
52574.0,STARLINK-3901,PAYLOAD,2024-02-24 21:16:35,15.08841831,0.0001629,53.2167,218.1839,88.8981,271.2197,8.8789e-05,1.125e-05,0.0,0 STARLINK-3901,1 52574U 22051AQ  24055.88651898  .00001125  00000-0  88789-4 0  9995,2 52574  53.2167 218.1839 0001629  88.8981 271.2197 15.08841831 99298,6917.875,95.437,540.867,538.613,0.0
52574.0,STARLINK-3901,PAYLOAD,2024-02-25 03:38:08,15.08819148,0.000135,53.2142,216.9907,89.6287,270.486,0.00028091,4.183e-05,0.0,0 STARLINK-3901,1 52574U 22051AQ  24056.15148903  .00004183  00000-0  28091-3 0  9990,2 52574  53.2142 216.9907 0001350  89.6287 270.4860 15.08819148 99409,6917.944,95.439,540.743,538.875,0.0
52574.0,STARLINK-3901,PAYLOAD,2024-02-25 14:45:49,15.08840994,0.0001078,53.2143,214.9087,74.3132,285.7979,3.7277e-05,3.06e-06,0.0,0 STARLINK-3901,1 52574U 22051AQ  24056.61516065  .00000306  00000-0  37277-4 0  9999,2 52574  53.2143 214.9087 0001078  74.3132 285.7979 15.08840994 99407,6917.877,95.437,540.488,538.997,0.0
52574.0,STARLINK-3901,PAYLOAD,2024-02-25 19:31:58,15.08851081,0.0001664,53.2172,214.0158,106.5701,253.5474,7.9477e-05,9.77e-06,0.0,0 STARLINK-3901,1 52574U 22051AQ  24056.81387207  .00000977  00000-0  79477-4 0  9997,2 52574  53.2172 214.0158 0001664 106.5701 253.5474 15.08851081 99503,6917.847,95.437,540.863,538.56,0.0
52574.0,STARLINK-3901,PAYLOAD,2024-02-26 03:28:55,15.0883746,0.0001428,53.2158,212.5337,76.2436,283.8715,6.9637e-05,8.2e-06,0.0,0 STARLINK-3901,1 52574U 22051AQ  24057.14508374  .00000820  00000-0  69637-4 0  9998,2 52574  53.2158 212.5337 0001428  76.2436 283.8715 15.08837460 99559,6917.888,95.438,540.741,538.765,0.0
52574.0,STARLINK-3901,PAYLOAD,2024-02-26 14:36:38,15.08828856,0.0001594,53.2164,210.4512,85.3873,274.7301,-6.0777e-05,-1.255e-05,0.0,0 STARLINK-3901,1 52574U 22051AQ  24057.60877550 -.00001255  00000-0 -60777-4 0  9995,2 52574  53.2164 210.4512 0001594  85.3873 274.7301 15.08828856 99557,6917.914,95.438,540.882,538.677,0.0
52574.0,STARLINK-3901,PAYLOAD,2024-02-26 19:22:47,15.08832721,0.0001569,53.2154,209.5584,82.4096,277.7074,-2.6583e-05,-7.11e-06,0.0,0 STARLINK-3901,1 52574U 22051AQ  24057.80749326 -.00000711  00000-0 -26583-4 0  9999,2 52574  53.2154 209.5584 0001569  82.4096 277.7074 15.08832721 99658,6917.903,95.438,540.853,538.682,0.0
52574.0,STARLINK-3901,PAYLOAD,2024-02-27 14:27:24,15.08841309,0.000148,53.2159,205.9919,80.6234,279.4925,6.864e-05,8.05e-06,0.0,0 STARLINK-3901,1 52574U 22051AQ  24058.60236777  .00000805  00000-0  68640-4 0  9991,2 52574  53.2159 205.9919 0001480  80.6234 279.4925 15.08841309 99703,6917.876,95.437,540.765,538.718,0.0
52574.0,STARLINK-3901,PAYLOAD,2024-02-27 19:13:33,15.08851285,0.0001211,53.2154,205.0987,90.1239,269.9892,7.1971e-05,8.58e-06,0.0,0 STARLINK-3901,1 52574U 22051AQ  24058.80108097  .00000858  00000-0  71971-4 0  9995,2 52574  53.2154 205.0987 0001211  90.1239 269.9892 15.08851285 99809,6917.846,95.437,540.549,538.873,0.0
52574.0,STARLINK-3901,PAYLOAD,2024-02-28 03:10:30,15.08837248,0.0001368,53.215,203.6128,79.8084,280.3062,0.00033445,5.038e-05,0.0,0 STARLINK-3901,1 52574U 22051AQ  24059.13229208  .00005038  00000-0  33445-3 0  9998,2 52574  53.2150 203.6128 0001368  79.8084 280.3062 15.08837248 99855,6917.889,95.438,540.7,538.807,0.0
52574.0,STARLINK-3901,PAYLOAD,2024-02-28 14:18:12,15.08838437,0.0001452,53.2161,201.5305,80.1856,279.93,0.000249,3.677e-05,0.0,0 STARLINK-3901,1 52574U 22051AQ  24059.59597224  .00003677  00000-0  24900-3 0  9997,2 52574  53.2161 201.5305 0001452  80.1856 279.9300 15.08838437 99857,6917.885,95.438,540.755,538.746,0.0
52574.0,STARLINK-3901,PAYLOAD,2024-02-28 15:53:34,15.08837744,0.0001518,53.2164,201.2307,84.5722,275.5443,0.00021225,3.091e-05,0.0,0 STARLINK-3901,1 52574U 22051AQ  24059.66220923  .00003091  00000-0  21225-3 0  9991,2 52574  53.2164 201.2307 0001518  84.5722 275.5443 15.08837744 99863,6917.887,95.438,540.802,538.702,0.0
52574.0,STARLINK-3901,PAYLOAD,2024-02-29 12:33:35,15.08846661,0.0001459,53.2169,197.3647,90.316,269.7999,5.7646e-05,6.3e-06,0.0,0 STARLINK-3901,1 52574U 22051AQ  24060.52332641  .00000630  00000-0  57646-4 0  9992,2 52574  53.2169 197.3647 0001459  90.3160 269.7999 15.08846661100069,6917.86,95.437,540.734,538.716,0.0
52574.0,STARLINK-3901,PAYLOAD,2024-02-29 14:08:58,15.08846598,0.0001452,53.2171,197.0673,90.191,269.9248,4.9522e-05,5e-06,0.0,0 STARLINK-3901,1 52574U 22051AQ  24060.58956611  .00000500  00000-0  49522-4 0  9997,2 52574  53.2171 197.0673 0001452  90.1910 269.9248 15.08846598100004,6917.86,95.437,540.73,538.721,0.0
52574.0,STARLINK-3901,PAYLOAD,2024-02-29 18:55:07,15.08852788,0.0001357,53.2169,196.1762,83.3055,276.8091,7.7824e-05,9.51e-06,0.0,0 STARLINK-3901,1 52574U 22051AQ  24060.78828046  .00000951  00000-0  77824-4 0  9995,2 52574  53.2169 196.1762 0001357  83.3055 276.8091 15.08852788100032,6917.841,95.437,540.645,538.768,0.0
52574.0,STARLINK-3901,PAYLOAD,2024-03-01 13:59:45,15.08838083,0.0001655,53.2175,192.6065,104.9079,255.2097,2.3694e-05,8.9e-07,0.0,0 STARLINK-3901,1 52574U 22051AQ  24061.58317083  .00000089  00000-0  23694-4 0  9996,2 52574  53.2175 192.6065 0001655 104.9079 255.2097 15.08838083100155,6917.886,95.438,540.896,538.606,0.0
52574.0,STARLINK-3901,PAYLOAD,2024-03-01 15:35:09,15.08839242,0.0001269,53.2169,192.3122,85.3694,274.7443,4.5164e-05,4.31e-06,0.0,0 STARLINK-3901,1 52574U 22051AQ  24061.64941060  .00000431  00000-0  45164-4 0  9998,2 52574  53.2169 192.3122 0001269  85.3694 274.7443 15.08839242100165,6917.883,95.438,540.626,538.87,0.0
52574.0,STARLINK-3901,PAYLOAD,2024-03-02 13:50:32,15.08846353,0.000127,53.2167,188.1499,86.8548,273.259,6.6911e-05,7.77e-06,0.0,0 STARLINK-3901,1 52574U 22051AQ  24062.57676589  .00000777  00000-0  66911-4 0  9998,2 52574  53.2167 188.1499 0001270  86.8548 273.2590 15.08846353100303,6917.861,95.437,540.605,538.847,0.0
52574.0,STARLINK-3901,PAYLOAD,2024-03-03 00:58:13,15.08860365,0.0001339,53.2182,186.0713,91.1788,268.9357,0.00017289,2.466e-05,0.0,0 STARLINK-3901,1 52574U 22051AQ  24063.04043189  .00002466  00000-0  17289-3 0  9995,2 52574  53.2182 186.0713 0001339  91.1788 268.9357 15.08860365100443,6917.818,95.436,540.609,538.757,0.0
52574.0,STARLINK-3901,PAYLOAD,2024-03-03 12:05:57,15.08821747,0.0001263,53.2161,183.9879,83.543,276.5706,-0.0002211,-3.803e-05,0.0,0 STARLINK-3901,1 52574U 22051AQ  24063.50413564 -.00003803  00000-0 -22110-3 0  9991,2 52574  53.2161 183.9879 0001263  83.5430 276.5706 15.08821747100516,6917.936,95.439,540.675,538.927,0.0
52574.0,STARLINK-3901,PAYLOAD,2024-03-03 13:41:20,15.08822541,0.0001449,53.2163,183.691,83.9815,276.1342,-0.00020228,-3.504e-05,0.0,0 STARLINK-3901,1 52574U 22051AQ  24063.57037629 -.00003504  00000-0 -20228-3 0  9998,2 52574  53.2163 183.6910 0001449  83.9815 276.1342 15.08822541100456,6917.934,95.439,540.801,538.796,0.0
52574.0,STARLINK-3901,PAYLOAD,2024-03-03 16:52:06,15.08827373,0.0001526,53.2169,183.0959,77.564,282.5522,-0.00012415,-2.263e-05,0.0,0 STARLINK-3901,1 52574U 22051AQ  24063.70285521 -.00002263  00000-0 -12415-3 0  9999,2 52574  53.2169 183.0959 0001526  77.5640 282.5522 15.08827373100471,6917.919,95.438,540.84,538.728,0.0
52574.0,STARLINK-3901,PAYLOAD,2024-03-04 13:32:06,15.08857605,0.0001505,53.2166,179.2299,79.716,280.4002,0.00037162,5.634e-05,0.0,0 STARLINK-3901,1 52574U 22051AQ  24064.56396146  .00005634  00000-0  37162-3 0  9999,2 52574  53.2166 179.2299 0001505  79.7160 280.4002 15.08857605100673,6917.827,95.436,540.733,538.65,0.0
52574.0,STARLINK-3901,PAYLOAD,2024-03-04 15:07:29,15.08860161,0.000154,53.2158,178.9317,69.1777,290.938,0.0010856,0.00017041,0.0,0 STARLINK-3901,1 52574U 22051AQ  24064.63020554  .00017041  00000-0  10856-2 0  9999,2 52574  53.2158 178.9317 0001540  69.1777 290.9380 15.08860161100617,6917.819,95.436,540.749,538.618,0.0
52574.0,STARLINK-3901,PAYLOAD,2024-03-05 13:22:54,15.08805683,0.0001558,53.2152,174.7693,84.6517,275.4653,0.0005992,9.252e-05,0.0,0 STARLINK-3901,1 52574U 22051AQ  24065.55757203  .00009252  00000-0  59920-3 0  9990,2 52574  53.2152 174.7693 0001558  84.6517 275.4653 15.08805683100759,6917.985,95.44,540.928,538.772,0.0
52574.0,STARLINK-3901,PAYLOAD,2024-03-05 14:58:17,15.08801925,0.0001276,53.2153,174.4723,85.5618,274.5519,0.0010616,0.0001663,0.0,0 STARLINK-3901,1 52574U 22051AQ  24065.62381343  .00016630  00000-0  10616-2 0  9992,2 52574  53.2153 174.4723 0001276  85.5618 274.5519 15.08801925100835,6917.997,95.44,540.745,538.979,0.0
